IRIDIUM 33              
1 24946U 97051C   26137.12582162  .00000191  00000+0  59912-4 0  9993
2 24946  86.3891   2.9976 0009954  72.1925 288.0356 14.35136071500635
IRIDIUM 33 DEB          
1 33773U 97051L   26136.99808965  .00000539  00000+0  15310-3 0  9996
2 33773  86.4023 354.7944 0011501  11.3136 348.8321 14.43602631905875
IRIDIUM 33 DEB          
1 33775U 97051N   26137.06078213  .00000919  00000+0  27431-3 0  9991
2 33775  86.3632 343.2381 0013497  18.4421 144.3959 14.41941437903783
IRIDIUM 33 DEB          
1 33776U 97051P   26137.16653461  .00000454  00000+0  14194-3 0  9993
2 33776  86.4067  15.4798 0016339  52.4942 106.2038 14.38504505903165
IRIDIUM 33 DEB          
1 33777U 97051Q   26136.99365757  .00001934  00000+0  42873-3 0  9991
2 33777  86.3766 327.6254 0009105  94.6302 265.5946 14.56649422907931
IRIDIUM 33 DEB          
1 33850U 97051T   26136.75150616  .00000947  00000+0  27902-3 0  9992
2 33850  86.3394 323.5236 0012208  28.4037 343.2783 14.42621668903872
IRIDIUM 33 DEB          
1 33853U 97051W   26136.88013966  .00000693  00000+0  37960-3 0  9998
2 33853  85.9963 281.7370 0210081 120.4245  40.2326 13.99798729875159
IRIDIUM 33 DEB          
1 33860U 97051AD  26136.94303196  .00003963  00000+0  65925-3 0  9995
2 33860  86.3802 318.3998 0009574 152.8573   0.2336 14.69838980910006
IRIDIUM 33 DEB          
1 33862U 97051AF  26136.99035403  .00005204  00000+0  79228-3 0  9996
2 33862  86.4073 328.8736 0046202 249.4136 262.9608 14.73053856911064
IRIDIUM 33 DEB          
1 33866U 97051AK  26137.18868725  .00002306  00000+0  89101-3 0  9994
2 33866  86.3029  27.2131 0115878  22.8184 140.6780 14.26149552890256
IRIDIUM 33 DEB          
1 33870U 97051AP  26137.02839138  .00001210  00000+0  32841-3 0  9990
2 33870  86.3756 351.6668 0021930  31.9030 123.6764 14.46689208903812
IRIDIUM 33 DEB          
1 33881U 97051BA  26136.66413566  .00010708  00000+0  21171-2 0  9999
2 33881  86.3849  39.1319 0060936  12.9180   9.4898 14.61088717897593
IRIDIUM 33 DEB          
1 33884U 97051BD  26137.19977866  .00009606  00000+0  12029-2 0  9996
2 33884  86.3646 299.3692 0012771 125.5023  47.7656 14.82100104911464
IRIDIUM 33 DEB          
1 33886U 97051BF  26137.19526463  .00000307  00000+0  98325-4 0  9995
2 33886  86.3851   1.7937 0016195  96.6051  29.6119 14.36234435902832
IRIDIUM 33 DEB          
1 33887U 97051BG  26137.23197464  .00000249  00000+0  76591-4 0  9992
2 33887  86.3007 296.3917 0008393  92.2176  86.0410 14.37373287903985
IRIDIUM 33 DEB          
1 33953U 97051BN  26136.58677497  .00002418  00000+0  53365-3 0  9995
2 33953  86.3858 346.5021 0014338 304.1046  81.7755 14.56925775905571
IRIDIUM 33 DEB          
1 33960U 97051BV  26137.18573932  .00010742  00000+0  10232-2 0  9993
2 33960  86.2567 215.7039 0003419 158.3574 264.7764 14.93289292911819
IRIDIUM 33 DEB          
1 33966U 97051CB  26137.11020529  .00001023  00000+0  25741-3 0  9995
2 33966  86.3919 339.3350 0009296  54.2024  69.0793 14.50277758906931
IRIDIUM 33 DEB          
1 34071U 97051CE  26136.73527974  .00001203  00000+0  30405-3 0  9999
2 34071  86.3419 310.4290 0005947 325.1818  34.8997 14.50250955905808
IRIDIUM 33 DEB          
1 34077U 97051CL  26136.53634735  .00004318  00000+0  75672-3 0  9992
2 34077  86.3844 343.1683 0007842 202.0750 187.0604 14.67572090906014
IRIDIUM 33 DEB          
1 34079U 97051CN  26137.23260264  .00009208  00000+0  98198-3 0  9995
2 34079  86.3719 297.6033 0007943 142.1422  35.2369 14.88734105912874
IRIDIUM 33 DEB          
1 34088U 97051CX  26136.99014102  .00023886  00000+0  18175-2 0  9999
2 34088  86.3770 318.7422 0003250  31.0326 129.4563 15.01995540910647
IRIDIUM 33 DEB          
1 34091U 97051DA  26136.86040219  .00017544  00000+0  16358-2 0  9992
2 34091  86.3476 355.0779 0030840 100.9469 259.5232 14.93769428901745
IRIDIUM 33 DEB          
1 34097U 97051DG  26136.48384385  .00002585  00000+0  85267-3 0  9996
2 34097  86.1950 293.0250 0080500 214.4287 145.1680 14.35943488893392
IRIDIUM 33 DEB          
1 34145U 97051DY  26137.08051610  .00001645  00000+0  47393-3 0  9993
2 34145  86.2092 263.2429 0050037 302.3009  57.3350 14.43467261898787
IRIDIUM 33 DEB          
1 34146U 97051DZ  26137.16355448  .00001604  00000+0  40657-3 0  9990
2 34146  86.2794 281.0729 0028284  70.1872 108.9106 14.50044994903584
IRIDIUM 33 DEB          
1 34159U 97051EN  26136.55338316  .00000682  00000+0  21395-3 0  9994
2 34159  86.3509 342.2355 0029194 135.7292 224.6249 14.38893091901851
IRIDIUM 33 DEB          
1 34350U 97051ES  26136.87459515  .00000621  00000+0  16891-3 0  9995
2 34350  86.3237 295.4740 0020292 350.2190 164.2087 14.45826142905348
IRIDIUM 33 DEB          
1 34366U 97051FJ  26137.06874286  .00002613  00000+0  59407-3 0  9993
2 34366  86.3682 341.6796 0019597 344.2872 173.5934 14.55528386904400
IRIDIUM 33 DEB          
1 34375U 97051FT  26136.91375068  .00000620  00000+0  27781-3 0  9996
2 34375  86.4276 120.1558 0101597 355.4436  32.7128 14.18292831889111
IRIDIUM 33 DEB          
1 34376U 97051FU  26137.15550590  .00005280  00000+0  96594-3 0  9994
2 34376  86.2920 296.4673 0024312   6.1976 353.9532 14.65522345902817
IRIDIUM 33 DEB          
1 34486U 97051GB  26136.69514528  .00025499  00000+0  17510-2 0  9999
2 34486  86.3845 299.8663 0006709 258.6822 115.8288 15.05839311913113
IRIDIUM 33 DEB          
1 34487U 97051GC  26135.91694933  .00000354  00000+0  98527-4 0  9995
2 34487  86.3399 306.0045 0030130 344.6387 168.2945 14.43454026904726
IRIDIUM 33 DEB          
1 34492U 97051GH  26136.14171417  .00003501  00000+0  11458-2 0  9997
2 34492  86.4713 272.0439 0184428 101.4767  21.5068 14.28971555872616
IRIDIUM 33 DEB          
1 34497U 97051GN  26135.55049370  .00000893  00000+0  34126-3 0  9997
2 34497  86.2785 346.6842 0078237 201.2589 187.7676 14.28001339890787
IRIDIUM 33 DEB          
1 34508U 97051GZ  26137.15957649  .00002150  00000+0  66606-3 0  9991
2 34508  86.3725  36.6578 0065931  24.6601 335.7725 14.39538326895447
IRIDIUM 33 DEB          
1 34521U 97051HN  26136.95854392  .00004106  00000+0  75527-3 0  9999
2 34521  86.3763 322.1031 0005487  94.3208 265.8632 14.65424062907442
IRIDIUM 33 DEB          
1 34525U 97051HS  26136.86109664  .00000638  00000+0  18340-3 0  9994
2 34525  86.3726 340.6346 0002849 324.3501  51.5940 14.43313461903253
IRIDIUM 33 DEB          
1 34529U 97051HW  26136.99892450  .00000422  00000+0  12555-3 0  9997
2 34529  86.3622 329.2409 0006758  63.1667 297.0223 14.40816969903775
IRIDIUM 33 DEB          
1 34538U 97051JF  26137.19384571  .00001447  00000+0  41837-3 0  9993
2 34538  86.2725 297.4152 0034623 167.7675 252.6073 14.43561218899985
IRIDIUM 33 DEB          
1 34540U 97051JH  26137.01716975  .00006527  00000+0  88427-3 0  9994
2 34540  86.3114 236.3852 0013422 357.9153 179.5276 14.78753093913136
IRIDIUM 33 DEB          
1 34648U 97051JZ  26137.18502536  .00005333  00000+0  23836-2 0  9993
2 34648  86.3948 219.0453 0179322 166.8219 193.7745 14.14312525871567
IRIDIUM 33 DEB          
1 34651U 97051KC  26136.77897806  .00005446  00000+0  19720-2 0  9990
2 34651  86.2781  74.4208 0138797  64.2512 297.2931 14.28042258881076
IRIDIUM 33 DEB          
1 34652U 97051KD  26137.12021102  .00002589  00000+0  49276-3 0  9994
2 34652  86.3281 270.7187 0029776 124.0397  49.3987 14.63452567907558
IRIDIUM 33 DEB          
1 34690U 97051KM  26136.80782266  .00001508  00000+0  34016-3 0  9991
2 34690  86.3765 329.5771 0008985 198.0544 179.5663 14.55708097903504
IRIDIUM 33 DEB          
1 34696U 97051KT  26136.93120416  .00016996  00000+0  24005-2 0  9997
2 34696  86.1820 314.6152 0057650 354.6723 159.8692 14.75922866889544
IRIDIUM 33 DEB          
1 34765U 97051LJ  26136.78725421  .00000712  00000+0  21554-3 0  9990
2 34765  86.3371 326.2295 0018413  70.4240 307.7947 14.40899422898463
IRIDIUM 33 DEB          
1 34833U 97051MH  26136.83957050  .00001501  00000+0  35532-3 0  9995
2 34833  86.3937 344.1133 0017417 300.1296  76.1998 14.53402535899670
IRIDIUM 33 DEB          
1 34870U 97051MQ  26137.06041874  .00006211  00000+0  82265-3 0  9998
2 34870  86.3113 242.7251 0015348  20.9247 101.2382 14.79674805912059
IRIDIUM 33 DEB          
1 34896U 97051MY  26136.60180626  .00002927  00000+0  50586-3 0  9995
2 34896  86.3278 257.1152 0026569  51.8272 323.3761 14.67861910898904
IRIDIUM 33 DEB          
1 34926U 97051NF  26136.92986006  .00013915  00000+0  26957-2 0  9993
2 34926  86.1311 295.8699 0073717 128.6085  32.8322 14.61455496887186
IRIDIUM 33 DEB          
1 34985U 97051NR  26136.85843409  .00001016  00000+0  29854-3 0  9998
2 34985  86.3696 350.6867 0023316  73.7302 305.3087 14.42708850894119
IRIDIUM 33 DEB          
1 35051U 97051NX  26129.77082660  .00001410  00000+0  37191-3 0  9991
2 35051  86.3202 304.3114 0006824 329.3102  30.7702 14.48335496891388
IRIDIUM 33 DEB          
1 35052U 97051NY  26135.92565788  .00000336  00000+0  10308-3 0  9990
2 35052  86.3276 314.3867 0009559 303.2520  56.7761 14.38693808894928
IRIDIUM 33 DEB          
1 35080U 97051PF  26136.82698022  .00123193  00000+0  58417-2 0  9998
2 35080  86.2169 336.5058 0028318 334.0998  25.8824 15.18403412720151
IRIDIUM 33 DEB          
1 35297U 97051PM  26135.89633031  .00001003  00000+0  27641-3 0  9994
2 35297  86.3906 356.9466 0016593 359.0185   1.0982 14.45860564726530
IRIDIUM 33 DEB          
1 35299U 97051PP  26136.99011933  .00002534  00000+0  75140-3 0  9996
2 35299  86.2861 325.5392 0053945 311.4675 202.3618 14.42165366885677
IRIDIUM 33 DEB          
1 35480U 97051QA  26136.77538651  .00001220  00000+0  30616-3 0  9995
2 35480  86.3532 317.6711 0011835 313.2907  46.7310 14.50542594892782
IRIDIUM 33 DEB          
1 35484U 97051QE  26131.67047840  .00025350  00000+0  14415-2 0  9996
2 35484  86.3433 281.6674 0011481 296.1105  63.8952 15.12704637642726
IRIDIUM 33 DEB          
1 35488U 97051QJ  26135.71908717  .00005263  00000+0  58744-3 0  9993
2 35488  86.3269 229.6547 0024838 207.7880 152.2020 14.86596912905519
